{
  "norad_id": 22195,
  "name": "LAGEOS 2",
  "history": [
    {
      "epoch": "2026-03-20T02:10:27.910848Z",
      "apogee_km": 5951.238356554822,
      "perigee_km": 5616.266116922953,
      "latitude_deg": 21.458345683701836,
      "longitude_deg": -84.65389740267052,
      "height_km": 5617.084542848599,
      "semi_major_axis_km": 12161.889236738887,
      "eccentricity": 0.01377139,
      "inclination_deg": 52.6746,
      "raan_deg": 322.9737,
      "arg_perigee_deg": 148.3603,
      "mean_anomaly_deg": 4.1735,
      "mean_motion_rev_day": 6.47293426
    }
  ]
}